{
  "type": "FeatureCollection",
  "features": [
    {
      "type": "Feature",
      "properties": {
        "norad_id": 43207,
        "name": "BEIDOU-3 M4 (C22)",
        "group": "beidou",
        "lat": 30.685322000376726,
        "lon": -133.85682103616946,
        "alt_km": 21532.02287307704,
        "timestamp": "2025-12-14T03:55:53.052777+00:00",
        "meta_object_name": "BEIDOU-3 M4 (C22)",
        "meta_object_id": "2018-018A",
        "meta_epoch": "2025-12-10T17:31:13.270944",
        "meta_mean_motion": 1.86230984,
        "meta_eccentricity": 0.00041357,
        "meta_inclination": 56.4844,
        "meta_ra_of_asc_node": 69.3703,
        "meta_arg_of_pericenter": 10.5342,
        "meta_mean_anomaly": 349.4961,
        "meta_ephemeris_type": 0,
        "meta_classification_type": "U",
        "meta_norad_cat_id": 43207,
        "meta_element_set_no": 999,
        "meta_rev_at_epoch": 5323,
        "meta_bstar": 0,
        "meta_mean_motion_dot": -5.7e-07,
        "meta_mean_motion_ddot": 0,
        "tle_line1": "1 43207U 18018A   25344.73001471 -.00000057  00000+0  00000+0 0  9996",
        "tle_line2": "2 43207  56.4844  69.3703 0004135  10.5342 349.4961  1.86230984 53235"
      },
      "geometry": {
        "type": "Point",
        "coordinates": [
          -133.85682103616946,
          30.685322000376726
        ]
      }
    },
    {
      "type": "Feature",
      "properties": {
        "norad_id": 43208,
        "name": "BEIDOU-3 M3 (C21)",
        "group": "beidou",
        "lat": 55.75120082855371,
        "lon": 172.88055053219256,
        "alt_km": 21535.7382689095,
        "timestamp": "2025-12-14T03:55:53.052788+00:00",
        "meta_object_name": "BEIDOU-3 M3 (C21)",
        "meta_object_id": "2018-018B",
        "meta_epoch": "2025-12-10T19:07:00.567840",
        "meta_mean_motion": 1.8623124,
        "meta_eccentricity": 0.0006564,
        "meta_inclination": 56.484,
        "meta_ra_of_asc_node": 69.3721,
        "meta_arg_of_pericenter": 317.0111,
        "meta_mean_anomaly": 42.9593,
        "meta_ephemeris_type": 0,
        "meta_classification_type": "U",
        "meta_norad_cat_id": 43208,
        "meta_element_set_no": 999,
        "meta_rev_at_epoch": 5323,
        "meta_bstar": 0,
        "meta_mean_motion_dot": -5.7e-07,
        "meta_mean_motion_ddot": 0,
        "tle_line1": "1 43208U 18018B   25344.79653435 -.00000057  00000+0  00000+0 0  9996",
        "tle_line2": "2 43208  56.4840  69.3721 0006564 317.0111  42.9593  1.86231240 53231"
      },
      "geometry": {
        "type": "Point",
        "coordinates": [
          172.88055053219256,
          55.75120082855371
        ]
      }
    },
    {
      "type": "Feature",
      "properties": {
        "norad_id": 43245,
        "name": "BEIDOU-3 M9 (C29)",
        "group": "beidou",
        "lat": -36.71994609453215,
        "lon": -85.9265341897018,
        "alt_km": 21529.07807499891,
        "timestamp": "2025-12-14T03:55:53.052799+00:00",
        "meta_object_name": "BEIDOU-3 M9 (C29)",
        "meta_object_id": "2018-029A",
        "meta_epoch": "2025-12-13T03:51:10.107360",
        "meta_mean_motion": 1.8622811,
        "meta_eccentricity": 0.00015634,
        "meta_inclination": 54.3651,
        "meta_ra_of_asc_node": 306.4523,
        "meta_arg_of_pericenter": 280.7814,
        "meta_mean_anomaly": 79.1909,
        "meta_ephemeris_type": 0,
        "meta_classification_type": "U",
        "meta_norad_cat_id": 43245,
        "meta_element_set_no": 999,
        "meta_rev_at_epoch": 5243,
        "meta_bstar": 0,
        "meta_mean_motion_dot": -9.6e-07,
        "meta_mean_motion_ddot": 0,
        "tle_line1": "1 43245U 18029A   25347.16053365 -.00000096  00000+0  00000+0 0  9992",
        "tle_line2": "2 43245  54.3651 306.4523 0001563 280.7814  79.1909  1.86228110 52430"
      },
      "geometry": {
        "type": "Point",
        "coordinates": [
          -85.9265341897018,
          -36.71994609453215
        ]
      }
    },
    {
      "type": "Feature",
      "properties": {
        "norad_id": 43246,
        "name": "BEIDOU-3 M10 (C30)",
        "group": "beidou",
        "lat": -3.21299447197945,
        "lon": -55.880985065172204,
        "alt_km": 21517.701514704673,
        "timestamp": "2025-12-14T03:55:53.052811+00:00",
        "meta_object_name": "BEIDOU-3 M10 (C30)",
        "meta_object_id": "2018-029B",
        "meta_epoch": "2025-12-13T02:17:56.021856",
        "meta_mean_motion": 1.86228806,
        "meta_eccentricity": 0.00040465,
        "meta_inclination": 54.3625,
        "meta_ra_of_asc_node": 306.4821,
        "meta_arg_of_pericenter": 0.6072,
        "meta_mean_anomaly": 359.3832,
        "meta_ephemeris_type": 0,
        "meta_classification_type": "U",
        "meta_norad_cat_id": 43246,
        "meta_element_set_no": 999,
        "meta_rev_at_epoch": 5241,
        "meta_bstar": 0,
        "meta_mean_motion_dot": -9.6e-07,
        "meta_mean_motion_ddot": 0,
        "tle_line1": "1 43246U 18029B   25347.09578729 -.00000096  00000+0  00000+0 0  9991",
        "tle_line2": "2 43246  54.3625 306.4821 0004046   0.6072 359.3832  1.86228806 52415"
      },
      "geometry": {
        "type": "Point",
        "coordinates": [
          -55.880985065172204,
          -3.21299447197945
        ]
      }
    },
    {
      "type": "Feature",
      "properties": {
        "norad_id": 43539,
        "name": "BEIDOU-2 IGSO-7 (C16)",
        "group": "beidou",
        "lat": 55.05374088575851,
        "lon": -109.45747970000856,
        "alt_km": 36112.6204061011,
        "timestamp": "2025-12-14T03:55:53.052823+00:00",
        "meta_object_name": "BEIDOU-2 IGSO-7 (C16)",
        "meta_object_id": "2018-057A",
        "meta_epoch": "2025-12-12T21:40:21.690912",
        "meta_mean_motion": 1.00257087,
        "meta_eccentricity": 0.00924019,
        "meta_inclination": 55.1754,
        "meta_ra_of_asc_node": 164.6693,
        "meta_arg_of_pericenter": 235.1751,
        "meta_mean_anomaly": 117.987,
        "meta_ephemeris_type": 0,
        "meta_classification_type": "U",
        "meta_norad_cat_id": 43539,
        "meta_element_set_no": 999,
        "meta_rev_at_epoch": 2725,
        "meta_bstar": 0,
        "meta_mean_motion_dot": -3.7e-07,
        "meta_mean_motion_ddot": 0,
        "tle_line1": "1 43539U 18057A   25346.90302883 -.00000037  00000+0  00000+0 0  9997",
        "tle_line2": "2 43539  55.1754 164.6693 0092401 235.1751 117.9870  1.00257087 27257"
      },
      "geometry": {
        "type": "Point",
        "coordinates": [
          -109.45747970000856,
          55.05374088575851
        ]
      }
    },
    {
      "type": "Feature",
      "properties": {
        "norad_id": 43581,
        "name": "BEIDOU-3 M5 (C23)",
        "group": "beidou",
        "lat": -20.3603456925088,
        "lon": 24.203264846939085,
        "alt_km": 21536.057089209495,
        "timestamp": "2025-12-14T03:55:53.052834+00:00",
        "meta_object_name": "BEIDOU-3 M5 (C23)",
        "meta_object_id": "2018-062A",
        "meta_epoch": "2025-12-12T05:55:01.607232",
        "meta_mean_motion": 1.86228672,
        "meta_eccentricity": 0.00021016,
        "meta_inclination": 54.0891,
        "meta_ra_of_asc_node": 188.6597,
        "meta_arg_of_pericenter": 354.1416,
        "meta_mean_anomaly": 5.9159,
        "meta_ephemeris_type": 0,
        "meta_classification_type": "U",
        "meta_norad_cat_id": 43581,
        "meta_element_set_no": 999,
        "meta_rev_at_epoch": 5015,
        "meta_bstar": 0,
        "meta_mean_motion_dot": 7.9e-07,
        "meta_mean_motion_ddot": 0,
        "tle_line1": "1 43581U 18062A   25346.24654638  .00000079  00000+0  00000+0 0  9990",
        "tle_line2": "2 43581  54.0891 188.6597 0002101 354.1416   5.9159  1.86228672 50154"
      },
      "geometry": {
        "type": "Point",
        "coordinates": [
          24.203264846939085,
          -20.3603456925088
        ]
      }
    },
    {
      "type": "Feature",
      "properties": {
        "norad_id": 43582,
        "name": "BEIDOU-3 M6 (C24)",
        "group": "beidou",
        "lat": -46.059584874729694,
        "lon": 139.81953323769196,
        "alt_km": 21540.995910858655,
        "timestamp": "2025-12-14T03:55:53.052845+00:00",
        "meta_object_name": "BEIDOU-3 M6 (C24)",
        "meta_object_id": "2018-062B",
        "meta_epoch": "2025-12-12T15:31:04.646784",
        "meta_mean_motion": 1.86229838,
        "meta_eccentricity": 0.00078852,
        "meta_inclination": 54.0888,
        "meta_ra_of_asc_node": 188.6352,
        "meta_arg_of_pericenter": 47.3846,
        "meta_mean_anomaly": 312.743,
        "meta_ephemeris_type": 0,
        "meta_classification_type": "U",
        "meta_norad_cat_id": 43582,
        "meta_element_set_no": 999,
        "meta_rev_at_epoch": 5016,
        "meta_bstar": 0,
        "meta_mean_motion_dot": 8.5e-07,
        "meta_mean_motion_ddot": 0,
        "tle_line1": "1 43582U 18062B   25346.64658156  .00000085  00000+0  00000+0 0  9991",
        "tle_line2": "2 43582  54.0888 188.6352 0007885  47.3846 312.7430  1.86229838 50169"
      },
      "geometry": {
        "type": "Point",
        "coordinates": [
          139.81953323769196,
          -46.059584874729694
        ]
      }
    }
  ]
}